NORAD_CAT_ID,OBJECT_NAME,OBJECT_TYPE,EPOCH,MEAN_MOTION,ECCENTRICITY,INCLINATION,RA_OF_ASC_NODE,ARG_OF_PERICENTER,MEAN_ANOMALY,BSTAR,MEAN_MOTION_DOT,MEAN_MOTION_DDOT,TLE_LINE0,TLE_LINE1,TLE_LINE2,SEMIMAJOR_AXIS,PERIOD,APOGEE,PERIGEE,DECAYED
52860.0,STARLINK-4191,PAYLOAD,2023-09-13 22:20:24,15.08844329,0.0001365,53.2177,139.2108,89.5397,270.5752,0.00012736,1.74e-05,0.0,0 STARLINK-4191,1 52860U 22062AG  23256.93084078  .00001740  00000-0  12736-3 0  9994,2 52860  53.2177 139.2108 0001365  89.5397 270.5752 15.08844329 68880,6917.867,95.437,540.676,538.788,0.0
52860.0,STARLINK-4191,PAYLOAD,2023-09-13 23:55:47,15.08848678,0.000122,53.217,138.9125,85.6414,274.4717,8.1628e-05,1.012e-05,0.0,0 STARLINK-4191,1 52860U 22062AG  23256.99707856  .00001012  00000-0  81628-4 0  9995,2 52860  53.2170 138.9125 0001220  85.6414 274.4717 15.08848678 69386,6917.854,95.437,540.563,538.875,0.0
52860.0,STARLINK-4191,PAYLOAD,2023-09-14 20:35:49,15.08837049,0.0001227,53.2176,135.0469,89.376,270.7373,-6.48e-05,-1.319e-05,0.0,0 STARLINK-4191,1 52860U 22062AG  23257.85821166 -.00001319  00000-0 -64800-4 0  9997,2 52860  53.2176 135.0469 0001227  89.3760 270.7373 15.08837049 69021,6917.889,95.438,540.603,538.906,0.0
52860.0,STARLINK-4191,PAYLOAD,2023-09-14 22:11:12,15.08837532,0.0001339,53.2174,134.7493,88.2226,271.8919,-6.1209e-05,-1.262e-05,0.0,0 STARLINK-4191,1 52860U 22062AG  23257.92445146 -.00001262  00000-0 -61209-4 0  9992,2 52860  53.2174 134.7493 0001339  88.2226 271.8919 15.08837532 69521,6917.888,95.438,540.679,538.827,0.0
52860.0,STARLINK-4191,PAYLOAD,2023-09-16 01:12:44,15.08853781,0.000129,53.2171,129.6927,89.9453,270.1687,0.00015096,2.116e-05,0.0,0 STARLINK-4191,1 52860U 22062AG  23259.05051410  .00002116  00000-0  15096-3 0  9994,2 52860  53.2171 129.6927 0001290  89.9453 270.1687 15.08853781 69695,6917.838,95.437,540.596,538.811,0.0
52860.0,STARLINK-4191,PAYLOAD,2023-09-16 15:31:14,15.08834888,0.0001514,53.2177,127.0171,84.2411,275.8754,0.00010029,1.308e-05,0.0,0 STARLINK-4191,1 52860U 22062AG  23259.64669089  .00001308  00000-0  10029-3 0  9999,2 52860  53.2177 127.0171 0001514  84.2411 275.8754 15.08834888 69789,6917.896,95.438,540.808,538.714,0.0
52860.0,STARLINK-4191,PAYLOAD,2023-09-16 21:52:46,15.0883989,0.0001424,53.2164,125.8279,82.9304,277.185,0.00015945,2.251e-05,0.0,0 STARLINK-4191,1 52860U 22062AG  23259.91165004  .00002251  00000-0  15945-3 0  9997,2 52860  53.2164 125.8279 0001424  82.9304 277.1850 15.08839890 69337,6917.881,95.438,540.731,538.761,0.0
52860.0,STARLINK-4191,PAYLOAD,2023-09-17 18:32:46,15.08850173,0.0001415,53.2162,121.9623,81.7054,278.4099,8.6645e-05,1.092e-05,0.0,0 STARLINK-4191,1 52860U 22062AG  23260.77276375  .00001092  00000-0  86645-4 0  9995,2 52860  53.2162 121.9623 0001415  81.7054 278.4099 15.08850173 69958,6917.849,95.437,540.693,538.735,0.0
52860.0,STARLINK-4191,PAYLOAD,2023-09-17 23:18:55,15.08856982,0.0001421,53.2164,121.0696,82.4806,277.6348,0.00020955,3.05e-05,0.0,0 STARLINK-4191,1 52860U 22062AG  23260.97148043  .00003050  00000-0  20955-3 0  9994,2 52860  53.2164 121.0696 0001421  82.4806 277.6348 15.08856982 69492,6917.828,95.436,540.677,538.71,0.0
52860.0,STARLINK-4191,PAYLOAD,2023-09-18 21:34:20,15.08843618,0.0001396,53.217,116.9088,84.2601,275.855,0.00014704,2.053e-05,0.0,0 STARLINK-4191,1 52860U 22062AG  23261.89884550  .00002053  00000-0  14704-3 0  9993,2 52860  53.2170 116.9088 0001396  84.2601 275.8550 15.08843618 69634,6917.869,95.437,540.7,538.769,0.0
52860.0,STARLINK-4191,PAYLOAD,2023-09-18 23:09:43,15.08849975,0.0001345,53.2158,116.6091,83.4328,276.6817,0.00026531,3.938e-05,0.0,0 STARLINK-4191,1 52860U 22062AG  23261.96508420  .00003938  00000-0  26531-3 0  9994,2 52860  53.2158 116.6091 0001345  83.4328 276.6817 15.08849975 70136,6917.85,95.437,540.645,538.784,0.0
52860.0,STARLINK-4191,PAYLOAD,2023-09-19 18:14:20,15.08847172,0.0001425,53.2169,113.0426,95.7762,264.3393,0.00011444,1.534e-05,0.0,0 STARLINK-4191,1 52860U 22062AG  23262.75996232  .00001534  00000-0  11444-3 0  9991,2 52860  53.2169 113.0426 0001425  95.7762 264.3393 15.08847172 70251,6917.858,95.437,540.709,538.738,0.0
52860.0,STARLINK-4191,PAYLOAD,2023-09-19 23:00:29,15.08852173,0.0001323,53.2157,112.1484,84.4194,275.6949,0.00018923,2.726e-05,0.0,0 STARLINK-4191,1 52860U 22062AG  23262.95867956  .00002726  00000-0  18923-3 0  9996,2 52860  53.2157 112.1484 0001323  84.4194 275.6949 15.08852173 69799,6917.843,95.437,540.623,538.793,0.0
52860.0,STARLINK-4191,PAYLOAD,2023-09-20 18:05:08,15.08824688,0.0001546,53.2146,108.5771,107.5518,252.5643,-0.00023935,-4.094e-05,0.0,0 STARLINK-4191,1 52860U 22062AG  23263.75357460 -.00004094  00000-0 -23935-3 0  9990,2 52860  53.2146 108.5771 0001546 107.5518 252.5643 15.08824688 70404,6917.927,95.439,540.862,538.723,0.0
52860.0,STARLINK-4191,PAYLOAD,2023-09-20 21:15:55,15.08821531,0.0001456,53.2158,107.986,90.4088,269.7071,-0.00020146,-3.491e-05,0.0,0 STARLINK-4191,1 52860U 22062AG  23263.88605967 -.00003491  00000-0 -20146-3 0  9993,2 52860  53.2158 107.9860 0001456  90.4088 269.7071 15.08821531 69936,6917.937,95.439,540.809,538.795,0.0
52860.0,STARLINK-4191,PAYLOAD,2023-09-21 13:09:47,15.08825756,0.0001469,53.2162,105.0075,100.7543,259.3614,-3.1652e-05,-7.91e-06,0.0,0 STARLINK-4191,1 52860U 22062AG  23264.54846647 -.00000791  00000-0 -31652-4 0  9994,2 52860  53.2162 105.0075 0001469 100.7543 259.3614 15.08825756 70037,6917.924,95.438,540.805,538.773,0.0
52860.0,STARLINK-4191,PAYLOAD,2023-09-22 13:00:34,15.08844717,0.0001421,53.2159,100.5512,94.6904,265.425,0.00045284,6.927e-05,0.0,0 STARLINK-4191,1 52860U 22062AG  23265.54206395  .00006927  00000-0  45284-3 0  9995,2 52860  53.2159 100.5512 0001421  94.6904 265.4250 15.08844717 70187,6917.866,95.437,540.714,538.748,0.0
52860.0,STARLINK-4191,PAYLOAD,2023-09-22 17:46:43,15.08853491,0.0001435,53.2157,99.6601,92.2414,267.8743,0.00057362,8.856e-05,0.0,0 STARLINK-4191,1 52860U 22062AG  23265.74078144  .00008856  00000-0  57362-3 0  9999,2 52860  53.2157  99.6601 0001435  92.2414 267.8743 15.08853491 70707,6917.839,95.437,540.697,538.711,0.0
52860.0,STARLINK-4191,PAYLOAD,2023-09-22 20:57:29,15.08864947,0.000143,53.2157,99.0648,92.8249,267.2907,0.00080751,0.00012596,0.0,0 STARLINK-4191,1 52860U 22062AG  23265.87325859  .00012596  00000-0  80751-3 0  9995,2 52860  53.2157  99.0648 0001430  92.8249 267.2907 15.08864947 70231,6917.804,95.436,540.658,538.68,0.0
52860.0,STARLINK-4191,PAYLOAD,2023-09-23 19:12:53,15.08851828,0.0001373,53.2161,94.8999,97.1162,262.9986,0.00012993,1.781e-05,0.0,0 STARLINK-4191,1 52860U 22062AG  23266.80061389  .00001781  00000-0  12993-3 0  9991,2 52860  53.2161  94.8999 0001373  97.1162 262.9986 15.08851828 70868,6917.844,95.437,540.659,538.759,0.0
52860.0,STARLINK-4191,PAYLOAD,2023-09-24 12:42:07,15.0884296,0.0001471,53.2173,91.6275,103.2055,256.9101,-4.7631e-05,-1.046e-05,0.0,0 STARLINK-4191,1 52860U 22062AG  23267.52925442 -.00001046  00000-0 -47631-4 0  9994,2 52860  53.2173  91.6275 0001471 103.2055 256.9101 15.08842960 70489,6917.871,95.437,540.754,538.719,0.0
52860.0,STARLINK-4191,PAYLOAD,2023-09-24 17:28:16,15.08847909,0.0001388,53.2171,90.7369,102.9815,257.1332,-5.1588e-05,-1.109e-05,0.0,0 STARLINK-4191,1 52860U 22062AG  23267.72797271 -.00001109  00000-0 -51588-4 0  9999,2 52860  53.2171  90.7369 0001388 102.9815 257.1332 15.08847909 71004,6917.856,95.437,540.681,538.761,0.0
52860.0,STARLINK-4191,PAYLOAD,2023-09-24 22:14:26,15.08851508,0.0001301,53.2174,89.8445,102.323,257.7908,-3.036e-05,-7.71e-06,0.0,0 STARLINK-4191,1 52860U 22062AG  23267.92669168 -.00000771  00000-0 -30360-4 0  9993,2 52860  53.2174  89.8445 0001301 102.3230 257.7908 15.08851508 70544,6917.845,95.437,540.61,538.81,0.0
52860.0,STARLINK-4191,PAYLOAD,2023-09-25 12:32:54,15.08839794,0.0001276,53.2175,87.1674,99.9896,260.124,6.1637e-05,6.93e-06,0.0,0 STARLINK-4191,1 52860U 22062AG  23268.52285595  .00000693  00000-0  61637-4 0  9990,2 52860  53.2175  87.1674 0001276  99.9896 260.1240 15.08839794 70630,6917.881,95.438,540.629,538.863,0.0
52860.0,STARLINK-4191,PAYLOAD,2023-09-25 18:54:26,15.08847055,0.0001195,53.2182,85.9821,87.1882,272.9247,8.4655e-05,1.06e-05,0.0,0 STARLINK-4191,1 52860U 22062AG  23268.78781120  .00001060  00000-0  84655-4 0  9997,2 52860  53.2182  85.9821 0001195  87.1882 272.9247 15.08847055 71168,6917.859,95.437,540.551,538.897,0.0
52860.0,STARLINK-4191,PAYLOAD,2023-09-25 20:29:49,15.08849583,0.0001181,53.2174,85.683,92.3922,267.7206,9.2127e-05,1.179e-05,0.0,0 STARLINK-4191,1 52860U 22062AG  23268.85404899  .00001179  00000-0  92127-4 0  9994,2 52860  53.2174  85.6830 0001181  92.3922 267.7206 15.08849583 70685,6917.851,95.437,540.533,538.899,0.0
52860.0,STARLINK-4191,PAYLOAD,2023-09-26 12:23:42,15.08829564,0.0001175,53.2174,82.7076,91.8249,268.2878,-1.4604e-05,-5.2e-06,0.0,0 STARLINK-4191,1 52860U 22062AG  23269.51646770 -.00000520  00000-0 -14604-4 0  9999,2 52860  53.2174  82.7076 0001175  91.8249 268.2878 15.08829564 70783,6917.912,95.438,540.59,538.964,0.0
52860.0,STARLINK-4191,PAYLOAD,2023-09-26 17:09:52,15.08833151,0.0001371,53.2175,81.8142,98.176,261.9388,1.0695e-06,-2.71e-06,0.0,0 STARLINK-4191,1 52860U 22062AG  23269.71518561 -.00000271  00000-0  10695-5 0  9996,2 52860  53.2175  81.8142 0001371  98.1760 261.9388 15.08833151 71306,6917.901,95.438,540.715,538.818,0.0
52860.0,STARLINK-4191,PAYLOAD,2023-09-27 12:14:29,15.08840669,0.0001269,53.2171,78.2481,92.0911,268.0226,5.5498e-05,5.95e-06,0.0,0 STARLINK-4191,1 52860U 22062AG  23270.51006348  .00000595  00000-0  55498-4 0  9998,2 52860  53.2171  78.2481 0001269  92.0911 268.0226 15.08840669 70934,6917.878,95.438,540.621,538.865,0.0
52860.0,STARLINK-4191,PAYLOAD,2023-09-27 18:36:01,15.08846792,0.0001265,53.216,77.0587,89.5866,270.5271,0.0001568,2.209e-05,0.0,0 STARLINK-4191,1 52860U 22062AG  23270.77501899  .00002209  00000-0  15680-3 0  9999,2 52860  53.2160  77.0587 0001265  89.5866 270.5271 15.08846792 71462,6917.86,95.437,540.6,538.85,0.0
